STARLINK-1154           
1 45198U 20012W   26068.10422000  .00095128  00000+0  19057-2 0  9991
2 45198  53.0499  12.8007 0007244  86.2050 273.9784 15.45952497335209
FLOCK 4Q-29             
1 58304U 23174BA  26068.71428774  .00033498  00000+0  60684-3 0  9992
2 58304  97.3934 157.4868 0007644 141.6903 218.4893 15.49539999130328
